IRIDIUM 144             
1 43249U 18030A   24061.65952915  .00000007  00000+0 -45680-5 0  9994
2 43249  86.3925 280.4290 0002001  89.3168 270.8257 14.34217383310090
IRIDIUM 149             
1 43250U 18030B   24062.15426048  .00000316  00000+0  10561-3 0  9995
2 43250  86.3922 280.1982 0002257  88.5330 271.6124 14.34217090310186
IRIDIUM 157             
1 43251U 18030C   24061.68489658  .00000322  00000+0  10790-3 0  9990
2 43251  86.3924 280.4295 0001916  82.4959 277.6454 14.34219070310092
IRIDIUM 140             
1 43252U 18030D   24061.56438895  .00000054  00000+0  12130-4 0  9998
2 43252  86.3926 280.4950 0002172  97.0782 263.0661 14.34218392310134
IRIDIUM 145             
1 43253U 18030E   24061.69124171  .00000152  00000+0  47184-4 0  9998
2 43253  86.3923 280.4155 0002403  90.6290 269.5181 14.34219222310084
IRIDIUM 146             
1 43254U 18030F   24061.67221916  .00000074  00000+0  19241-4 0  9998
2 43254  86.3924 280.4387 0002397  90.8342 269.3129 14.34217360310097
IRIDIUM 148             
1 43255U 18030G   24061.71027140  .00000035  00000+0  54261-5 0  9996
2 43255  86.3924 280.4532 0002308  82.3685 277.7773 14.34217518310136
IRIDIUM 142             
1 43256U 18030H   24061.67855578  .00000188  00000+0  60083-4 0  9993
2 43256  86.3921 280.3858 0002318  87.5793 272.5668 14.34218416310091
